CCSDS_OMM_VERS = 2.0
CREATION_DATE  = 
ORIGINATOR     = 

OBJECT_NAME    = STARLINK-36869
OBJECT_ID      = 2026-037Y
CENTER_NAME    = EARTH
REF_FRAME      = TEME
TIME_SYSTEM    = UTC
MEAN_ELEMENT_THEORY = SGP/SGP4

EPOCH          = 2026-03-22T20:00:01.999872
MEAN_MOTION    = 15.50621976
ECCENTRICITY   = .00012594
INCLINATION    = 42.9993
RA_OF_ASC_NODE = 119.1648
ARG_OF_PERICENTER = 297.3399
MEAN_ANOMALY   = 301.7465

EPHEMERIS_TYPE = 0
CLASSIFICATION_TYPE = U
NORAD_CAT_ID   = 67954
ELEMENT_SET_NO = 999
REV_AT_EPOCH   = 531
BSTAR          = -.20113113E-2
MEAN_MOTION_DOT = -.116769E-2
MEAN_MOTION_DDOT = 0

CCSDS_OMM_VERS = 2.0
CREATION_DATE  = 
ORIGINATOR     = 

OBJECT_NAME    = STARLINK-36872
OBJECT_ID      = 2026-037Z
CENTER_NAME    = EARTH
REF_FRAME      = TEME
TIME_SYSTEM    = UTC
MEAN_ELEMENT_THEORY = SGP/SGP4

EPOCH          = 2026-03-22T20:00:01.999872
MEAN_MOTION    = 15.59286725
ECCENTRICITY   = .00010344
INCLINATION    = 42.9996
RA_OF_ASC_NODE = 118.3212
ARG_OF_PERICENTER = 276.1533
MEAN_ANOMALY   = 303.6390

EPHEMERIS_TYPE = 0
CLASSIFICATION_TYPE = U
NORAD_CAT_ID   = 67955
ELEMENT_SET_NO = 999
REV_AT_EPOCH   = 531
BSTAR          = -.27015446E-1
MEAN_MOTION_DOT = -.1926123E-1
MEAN_MOTION_DDOT = 0

CCSDS_OMM_VERS = 2.0
CREATION_DATE  = 
ORIGINATOR     = 

OBJECT_NAME    = STARLINK-36918
OBJECT_ID      = 2026-037AA
CENTER_NAME    = EARTH
REF_FRAME      = TEME
TIME_SYSTEM    = UTC
MEAN_ELEMENT_THEORY = SGP/SGP4

EPOCH          = 2026-03-22T20:00:01.999872
MEAN_MOTION    = 15.55859702
ECCENTRICITY   = .00013844
INCLINATION    = 42.9997
RA_OF_ASC_NODE = 118.4902
ARG_OF_PERICENTER = 281.0336
MEAN_ANOMALY   = 230.9616

EPHEMERIS_TYPE = 0
CLASSIFICATION_TYPE = U
NORAD_CAT_ID   = 67956
ELEMENT_SET_NO = 999
REV_AT_EPOCH   = 531
BSTAR          = -.30586475E-1
MEAN_MOTION_DOT = -.1916238E-1
MEAN_MOTION_DDOT = 0

CCSDS_OMM_VERS = 2.0
CREATION_DATE  = 
ORIGINATOR     = 

OBJECT_NAME    = STARLINK-36829
OBJECT_ID      = 2026-037AB
CENTER_NAME    = EARTH
REF_FRAME      = TEME
TIME_SYSTEM    = UTC
MEAN_ELEMENT_THEORY = SGP/SGP4

EPOCH          = 2026-03-22T20:00:01.999872
MEAN_MOTION    = 15.52534115
ECCENTRICITY   = .00010967
INCLINATION    = 43.0001
RA_OF_ASC_NODE = 118.7134
ARG_OF_PERICENTER = 283.0399
MEAN_ANOMALY   = 138.7859

EPHEMERIS_TYPE = 0
CLASSIFICATION_TYPE = U
NORAD_CAT_ID   = 67957
ELEMENT_SET_NO = 999
REV_AT_EPOCH   = 531
BSTAR          = -.36730943E-1
MEAN_MOTION_DOT = -.2058764E-1
MEAN_MOTION_DDOT = 0

CCSDS_OMM_VERS = 2.0
CREATION_DATE  = 
ORIGINATOR     = 

OBJECT_NAME    = STARLINK-36799
OBJECT_ID      = 2026-037AC
CENTER_NAME    = EARTH
REF_FRAME      = TEME
TIME_SYSTEM    = UTC
MEAN_ELEMENT_THEORY = SGP/SGP4

EPOCH          = 2026-03-22T20:00:01.999872
MEAN_MOTION    = 15.61755045
ECCENTRICITY   = .00011624
INCLINATION    = 42.9998
RA_OF_ASC_NODE = 118.1870
ARG_OF_PERICENTER = 268.6593
MEAN_ANOMALY   = 5.4177

EPHEMERIS_TYPE = 0
CLASSIFICATION_TYPE = U
NORAD_CAT_ID   = 67958
ELEMENT_SET_NO = 999
REV_AT_EPOCH   = 531
BSTAR          = -.24514002E-1
MEAN_MOTION_DOT = -.1924165E-1
MEAN_MOTION_DDOT = 0

CCSDS_OMM_VERS = 2.0
CREATION_DATE  = 
ORIGINATOR     = 

OBJECT_NAME    = STARLINK-36834
OBJECT_ID      = 2026-037AD
CENTER_NAME    = EARTH
REF_FRAME      = TEME
TIME_SYSTEM    = UTC
MEAN_ELEMENT_THEORY = SGP/SGP4

EPOCH          = 2026-03-22T20:00:01.999872
MEAN_MOTION    = 15.52442028
ECCENTRICITY   = .00017784
INCLINATION    = 43.0001
RA_OF_ASC_NODE = 118.6730
ARG_OF_PERICENTER = 278.4765
MEAN_ANOMALY   = 159.1192

EPHEMERIS_TYPE = 0
CLASSIFICATION_TYPE = U
NORAD_CAT_ID   = 67959
ELEMENT_SET_NO = 999
REV_AT_EPOCH   = 531
BSTAR          = -.40831577E-1
MEAN_MOTION_DOT = -.2254723E-1
MEAN_MOTION_DDOT = 0

CCSDS_OMM_VERS = 2.0
CREATION_DATE  = 
ORIGINATOR     = 

OBJECT_NAME    = STARLINK-36841
OBJECT_ID      = 2026-037AE
CENTER_NAME    = EARTH
REF_FRAME      = TEME
TIME_SYSTEM    = UTC
MEAN_ELEMENT_THEORY = SGP/SGP4

EPOCH          = 2026-03-22T20:00:01.999872
MEAN_MOTION    = 15.53126809
ECCENTRICITY   = .00013869
INCLINATION    = 42.9996
RA_OF_ASC_NODE = 118.6228
ARG_OF_PERICENTER = 279.1223
MEAN_ANOMALY   = 178.9100

EPHEMERIS_TYPE = 0
CLASSIFICATION_TYPE = U
NORAD_CAT_ID   = 67960
ELEMENT_SET_NO = 999
REV_AT_EPOCH   = 531
BSTAR          = -.28443826E-1
MEAN_MOTION_DOT = -.1641616E-1
MEAN_MOTION_DDOT = 0

CCSDS_OMM_VERS = 2.0
CREATION_DATE  = 
ORIGINATOR     = 

OBJECT_NAME    = STARLINK-36912
OBJECT_ID      = 2026-038A
CENTER_NAME    = EARTH
REF_FRAME      = TEME
TIME_SYSTEM    = UTC
MEAN_ELEMENT_THEORY = SGP/SGP4

EPOCH          = 2026-03-22T20:00:01.999872
MEAN_MOTION    = 15.47602211
ECCENTRICITY   = .00021406
INCLINATION    = 97.2849
RA_OF_ASC_NODE = 92.6658
ARG_OF_PERICENTER = 89.6239
MEAN_ANOMALY   = 56.0828

EPHEMERIS_TYPE = 0
CLASSIFICATION_TYPE = U
NORAD_CAT_ID   = 67961
ELEMENT_SET_NO = 999
REV_AT_EPOCH   = 531
BSTAR          = -.53154377E-1
MEAN_MOTION_DOT = -.2434623E-1
MEAN_MOTION_DDOT = 0

CCSDS_OMM_VERS = 2.0
CREATION_DATE  = 
ORIGINATOR     = 

OBJECT_NAME    = STARLINK-36881
OBJECT_ID      = 2026-038B
CENTER_NAME    = EARTH
REF_FRAME      = TEME
TIME_SYSTEM    = UTC
MEAN_ELEMENT_THEORY = SGP/SGP4

EPOCH          = 2026-03-22T20:00:01.999872
MEAN_MOTION    = 15.47477431
ECCENTRICITY   = .00025104
INCLINATION    = 97.2851
RA_OF_ASC_NODE = 92.6737
ARG_OF_PERICENTER = 68.5713
MEAN_ANOMALY   = 89.9912

EPHEMERIS_TYPE = 0
CLASSIFICATION_TYPE = U
NORAD_CAT_ID   = 67962
ELEMENT_SET_NO = 999
REV_AT_EPOCH   = 531
BSTAR          = -.49433066E-1
MEAN_MOTION_DOT = -.2232645E-1
MEAN_MOTION_DDOT = 0

CCSDS_OMM_VERS = 2.0
CREATION_DATE  = 
ORIGINATOR     = 

OBJECT_NAME    = STARLINK-36357
OBJECT_ID      = 2026-038C
CENTER_NAME    = EARTH
REF_FRAME      = TEME
TIME_SYSTEM    = UTC
MEAN_ELEMENT_THEORY = SGP/SGP4

EPOCH          = 2026-03-22T20:00:01.999872
MEAN_MOTION    = 15.49229691
ECCENTRICITY   = .00011117
INCLINATION    = 97.2857
RA_OF_ASC_NODE = 92.6361
ARG_OF_PERICENTER = 98.3801
MEAN_ANOMALY   = 335.4335

EPHEMERIS_TYPE = 0
CLASSIFICATION_TYPE = U
NORAD_CAT_ID   = 67963
ELEMENT_SET_NO = 999
REV_AT_EPOCH   = 531
BSTAR          = -.16873738E-2
MEAN_MOTION_DOT = -.90939E-3
MEAN_MOTION_DDOT = 0

CCSDS_OMM_VERS = 2.0
CREATION_DATE  = 
ORIGINATOR     = 

OBJECT_NAME    = STARLINK-36349
OBJECT_ID      = 2026-038D
CENTER_NAME    = EARTH
REF_FRAME      = TEME
TIME_SYSTEM    = UTC
MEAN_ELEMENT_THEORY = SGP/SGP4

EPOCH          = 2026-03-22T20:00:01.999872
MEAN_MOTION    = 15.49215341
ECCENTRICITY   = .0001094
INCLINATION    = 97.2857
RA_OF_ASC_NODE = 92.6327
ARG_OF_PERICENTER = 90.9268
MEAN_ANOMALY   = 335.7299

EPHEMERIS_TYPE = 0
CLASSIFICATION_TYPE = U
NORAD_CAT_ID   = 67964
ELEMENT_SET_NO = 999
REV_AT_EPOCH   = 531
BSTAR          = -.13750744E-2
MEAN_MOTION_DOT = -.74244E-3
MEAN_MOTION_DDOT = 0

CCSDS_OMM_VERS = 2.0
CREATION_DATE  = 
ORIGINATOR     = 

OBJECT_NAME    = STARLINK-36806
OBJECT_ID      = 2026-038E
CENTER_NAME    = EARTH
REF_FRAME      = TEME
TIME_SYSTEM    = UTC
MEAN_ELEMENT_THEORY = SGP/SGP4

EPOCH          = 2026-03-22T20:00:01.999872
MEAN_MOTION    = 15.48701009
ECCENTRICITY   = .0002025
INCLINATION    = 97.2850
RA_OF_ASC_NODE = 92.6870
ARG_OF_PERICENTER = 103.9339
MEAN_ANOMALY   = 90.3251

EPHEMERIS_TYPE = 0
CLASSIFICATION_TYPE = U
NORAD_CAT_ID   = 67965
ELEMENT_SET_NO = 999
REV_AT_EPOCH   = 531
BSTAR          = -.51368934E-1
MEAN_MOTION_DOT = -.2443952E-1
MEAN_MOTION_DDOT = 0

CCSDS_OMM_VERS = 2.0
CREATION_DATE  = 
ORIGINATOR     = 

OBJECT_NAME    = STARLINK-36820
OBJECT_ID      = 2026-038F
CENTER_NAME    = EARTH
REF_FRAME      = TEME
TIME_SYSTEM    = UTC
MEAN_ELEMENT_THEORY = SGP/SGP4

EPOCH          = 2026-03-22T20:00:01.999872
MEAN_MOTION    = 15.48814199
ECCENTRICITY   = .00018656
INCLINATION    = 97.2847
RA_OF_ASC_NODE = 92.6926
ARG_OF_PERICENTER = 88.2267
MEAN_ANOMALY   = 118.9924

EPHEMERIS_TYPE = 0
CLASSIFICATION_TYPE = U
NORAD_CAT_ID   = 67966
ELEMENT_SET_NO = 999
REV_AT_EPOCH   = 531
BSTAR          = -.51021825E-1
MEAN_MOTION_DOT = -.2437751E-1
MEAN_MOTION_DDOT = 0

CCSDS_OMM_VERS = 2.0
CREATION_DATE  = 
ORIGINATOR     = 

OBJECT_NAME    = STARLINK-36819
OBJECT_ID      = 2026-038G
CENTER_NAME    = EARTH
REF_FRAME      = TEME
TIME_SYSTEM    = UTC
MEAN_ELEMENT_THEORY = SGP/SGP4

EPOCH          = 2026-03-22T22:16:45.183936
MEAN_MOTION    = 15.49100269
ECCENTRICITY   = .00006467
INCLINATION    = 97.2846
RA_OF_ASC_NODE = 92.6286
ARG_OF_PERICENTER = 128.0476
MEAN_ANOMALY   = 232.0834

EPHEMERIS_TYPE = 0
CLASSIFICATION_TYPE = U
NORAD_CAT_ID   = 67967
ELEMENT_SET_NO = 999
REV_AT_EPOCH   = 525
BSTAR          = .38661891E-2
MEAN_MOTION_DOT = .21537E-2
MEAN_MOTION_DDOT = 0

CCSDS_OMM_VERS = 2.0
CREATION_DATE  = 
ORIGINATOR     = 

OBJECT_NAME    = STARLINK-36812
OBJECT_ID      = 2026-038H
CENTER_NAME    = EARTH
REF_FRAME      = TEME
TIME_SYSTEM    = UTC
MEAN_ELEMENT_THEORY = SGP/SGP4

EPOCH          = 2026-03-22T20:00:01.999872
MEAN_MOTION    = 15.49597897
ECCENTRICITY   = .0002283
INCLINATION    = 97.2850
RA_OF_ASC_NODE = 92.7047
ARG_OF_PERICENTER = 100.1795
MEAN_ANOMALY   = 126.3889

EPHEMERIS_TYPE = 0
CLASSIFICATION_TYPE = U
NORAD_CAT_ID   = 67968
ELEMENT_SET_NO = 999
REV_AT_EPOCH   = 531
BSTAR          = -.41232296E-1
MEAN_MOTION_DOT = -.2030555E-1
MEAN_MOTION_DDOT = 0

